PROGRESS-MS 32          
1 65586U 25204A   25341.18792727  .00013419  00000+0  24796-3 0  9999
2 65586  51.6302 169.9669 0003495 214.2568 145.8196 15.49384117   270
CYGNUS NG-23            
1 65616U 25208A   25341.18792727  .00013419  00000+0  24796-3 0  9997
2 65616  51.6302 169.9669 0003495 214.2568 145.8196 15.49384117   229
DRAGONFLY               
1 65729U 98067XH  25340.75777803  .00197078  00000+0  16006-2 0  9993
2 65729  51.6244 166.3400 0006463 240.1975 119.8380 15.69539731 12226
1998-067XK              
1 65731U 98067XK  25341.24284588  .00115237  00000+0  11655-2 0  9996
2 65731  51.6277 165.0923 0005514 212.3483 147.7174 15.64416852 12282
RSP-03                  
1 65732U 98067XL  25341.32089098  .00149269  00000+0  13580-2 0  9996
2 65732  51.6257 164.1062 0006310 215.9526 144.1047 15.66929092 12318
GHS-01                  
1 65733U 98067XM  25341.22787238  .00245776  00000+0  17831-2 0  9990
2 65733  51.6272 163.4841 0006899 242.1163 117.9137 15.72081173 12318
YOTSUBA-KULOVER         
1 65941U 98067XN  25340.94332358  .00083678  00000+0  10715-2 0  9993
2 65941  51.6276 169.0887 0001974 197.0362 163.0565 15.58463042  8958
BOTAN                   
1 65942U 98067XP  25340.76859027  .00129965  00000+0  14806-2 0  9996
2 65942  51.6270 169.4226 0003982 191.5132 168.5771 15.61316825  8936
E-KAGAKU-1              
1 65943U 98067XQ  25340.75088548  .00087541  00000+0  11231-2 0  9990
2 65943  51.6289 170.0575 0003024 170.5434 189.5616 15.58389180  8921
HRC MONOBLOCK CAMERA    
1 66052U 98067XR  25341.24882755  .00046223  00000+0  71473-3 0  9996
2 66052  51.6286 168.8742 0004018 162.1137 197.9995 15.53604712  7986
HTV-X1                  
1 66174U 25241A   25341.18792727  .00013419  00000+0  24796-3 0  9994
2 66174  51.6302 169.9669 0003495 214.2568 145.8196 15.49384117   511
SZ-21 MODULE            
1 66515U 25246C   25341.23340039  .00034807  00000+0  38778-3 0  9998
2 66515  41.4776  49.6264 0006188 229.5557 130.4743 15.62095520  3586
