CCSDS_OMM_VERS = 2.0
CREATION_DATE  = 
ORIGINATOR     = 

OBJECT_NAME    = PROGRESS-MS 32
OBJECT_ID      = 2025-204A
CENTER_NAME    = EARTH
REF_FRAME      = TEME
TIME_SYSTEM    = UTC
MEAN_ELEMENT_THEORY = SGP/SGP4

EPOCH          = 2025-12-07T04:30:36.916128
MEAN_MOTION    = 15.49384117
ECCENTRICITY   = .00034959
INCLINATION    = 51.6302
RA_OF_ASC_NODE = 169.9669
ARG_OF_PERICENTER = 214.2568
MEAN_ANOMALY   = 145.8196

EPHEMERIS_TYPE = 0
CLASSIFICATION_TYPE = U
NORAD_CAT_ID   = 65586
ELEMENT_SET_NO = 999
REV_AT_EPOCH   = 27
BSTAR          = .24795554E-3
MEAN_MOTION_DOT = .13419E-3
MEAN_MOTION_DDOT = 0

CCSDS_OMM_VERS = 2.0
CREATION_DATE  = 
ORIGINATOR     = 

OBJECT_NAME    = CYGNUS NG-23
OBJECT_ID      = 2025-208A
CENTER_NAME    = EARTH
REF_FRAME      = TEME
TIME_SYSTEM    = UTC
MEAN_ELEMENT_THEORY = SGP/SGP4

EPOCH          = 2025-12-07T04:30:36.916128
MEAN_MOTION    = 15.49384117
ECCENTRICITY   = .00034959
INCLINATION    = 51.6302
RA_OF_ASC_NODE = 169.9669
ARG_OF_PERICENTER = 214.2568
MEAN_ANOMALY   = 145.8196

EPHEMERIS_TYPE = 0
CLASSIFICATION_TYPE = U
NORAD_CAT_ID   = 65616
ELEMENT_SET_NO = 999
REV_AT_EPOCH   = 22
BSTAR          = .24795554E-3
MEAN_MOTION_DOT = .13419E-3
MEAN_MOTION_DDOT = 0

CCSDS_OMM_VERS = 2.0
CREATION_DATE  = 
ORIGINATOR     = 

OBJECT_NAME    = DRAGONFLY
OBJECT_ID      = 1998-067XH
CENTER_NAME    = EARTH
REF_FRAME      = TEME
TIME_SYSTEM    = UTC
MEAN_ELEMENT_THEORY = SGP/SGP4

EPOCH          = 2025-12-06T18:11:12.021792
MEAN_MOTION    = 15.69539731
ECCENTRICITY   = .00064636
INCLINATION    = 51.6244
RA_OF_ASC_NODE = 166.3400
ARG_OF_PERICENTER = 240.1975
MEAN_ANOMALY   = 119.8380

EPHEMERIS_TYPE = 0
CLASSIFICATION_TYPE = U
NORAD_CAT_ID   = 65729
ELEMENT_SET_NO = 999
REV_AT_EPOCH   = 1222
BSTAR          = .16006166E-2
MEAN_MOTION_DOT = .197078E-2
MEAN_MOTION_DDOT = 0

CCSDS_OMM_VERS = 2.0
CREATION_DATE  = 
ORIGINATOR     = 

OBJECT_NAME    = 1998-067XK
OBJECT_ID      = 1998-067XK
CENTER_NAME    = EARTH
REF_FRAME      = TEME
TIME_SYSTEM    = UTC
MEAN_ELEMENT_THEORY = SGP/SGP4

EPOCH          = 2025-12-07T05:49:41.884032
MEAN_MOTION    = 15.64416852
ECCENTRICITY   = .00055141
INCLINATION    = 51.6277
RA_OF_ASC_NODE = 165.0923
ARG_OF_PERICENTER = 212.3483
MEAN_ANOMALY   = 147.7174

EPHEMERIS_TYPE = 0
CLASSIFICATION_TYPE = U
NORAD_CAT_ID   = 65731
ELEMENT_SET_NO = 999
REV_AT_EPOCH   = 1228
BSTAR          = .11654996E-2
MEAN_MOTION_DOT = .115237E-2
MEAN_MOTION_DDOT = 0

CCSDS_OMM_VERS = 2.0
CREATION_DATE  = 
ORIGINATOR     = 

OBJECT_NAME    = RSP-03
OBJECT_ID      = 1998-067XL
CENTER_NAME    = EARTH
REF_FRAME      = TEME
TIME_SYSTEM    = UTC
MEAN_ELEMENT_THEORY = SGP/SGP4

EPOCH          = 2025-12-07T07:42:04.980672
MEAN_MOTION    = 15.66929092
ECCENTRICITY   = .000631
INCLINATION    = 51.6257
RA_OF_ASC_NODE = 164.1062
ARG_OF_PERICENTER = 215.9526
MEAN_ANOMALY   = 144.1047

EPHEMERIS_TYPE = 0
CLASSIFICATION_TYPE = U
NORAD_CAT_ID   = 65732
ELEMENT_SET_NO = 999
REV_AT_EPOCH   = 1231
BSTAR          = .13579871E-2
MEAN_MOTION_DOT = .149269E-2
MEAN_MOTION_DDOT = 0

CCSDS_OMM_VERS = 2.0
CREATION_DATE  = 
ORIGINATOR     = 

OBJECT_NAME    = GHS-01
OBJECT_ID      = 1998-067XM
CENTER_NAME    = EARTH
REF_FRAME      = TEME
TIME_SYSTEM    = UTC
MEAN_ELEMENT_THEORY = SGP/SGP4

EPOCH          = 2025-12-07T05:28:08.173632
MEAN_MOTION    = 15.72081173
ECCENTRICITY   = .00068995
INCLINATION    = 51.6272
RA_OF_ASC_NODE = 163.4841
ARG_OF_PERICENTER = 242.1163
MEAN_ANOMALY   = 117.9137

EPHEMERIS_TYPE = 0
CLASSIFICATION_TYPE = U
NORAD_CAT_ID   = 65733
ELEMENT_SET_NO = 999
REV_AT_EPOCH   = 1231
BSTAR          = .17831396E-2
MEAN_MOTION_DOT = .245776E-2
MEAN_MOTION_DDOT = 0

CCSDS_OMM_VERS = 2.0
CREATION_DATE  = 
ORIGINATOR     = 

OBJECT_NAME    = YOTSUBA-KULOVER
OBJECT_ID      = 1998-067XN
CENTER_NAME    = EARTH
REF_FRAME      = TEME
TIME_SYSTEM    = UTC
MEAN_ELEMENT_THEORY = SGP/SGP4

EPOCH          = 2025-12-06T22:38:23.157312
MEAN_MOTION    = 15.58463042
ECCENTRICITY   = .00019742
INCLINATION    = 51.6276
RA_OF_ASC_NODE = 169.0887
ARG_OF_PERICENTER = 197.0362
MEAN_ANOMALY   = 163.0565

EPHEMERIS_TYPE = 0
CLASSIFICATION_TYPE = U
NORAD_CAT_ID   = 65941
ELEMENT_SET_NO = 999
REV_AT_EPOCH   = 895
BSTAR          = .10714534E-2
MEAN_MOTION_DOT = .83678E-3
MEAN_MOTION_DDOT = 0

CCSDS_OMM_VERS = 2.0
CREATION_DATE  = 
ORIGINATOR     = 

OBJECT_NAME    = BOTAN
OBJECT_ID      = 1998-067XP
CENTER_NAME    = EARTH
REF_FRAME      = TEME
TIME_SYSTEM    = UTC
MEAN_ELEMENT_THEORY = SGP/SGP4

EPOCH          = 2025-12-06T18:26:46.199328
MEAN_MOTION    = 15.61316825
ECCENTRICITY   = .00039822
INCLINATION    = 51.6270
RA_OF_ASC_NODE = 169.4226
ARG_OF_PERICENTER = 191.5132
MEAN_ANOMALY   = 168.5771

EPHEMERIS_TYPE = 0
CLASSIFICATION_TYPE = U
NORAD_CAT_ID   = 65942
ELEMENT_SET_NO = 999
REV_AT_EPOCH   = 893
BSTAR          = .1480583E-2
MEAN_MOTION_DOT = .129965E-2
MEAN_MOTION_DDOT = 0

CCSDS_OMM_VERS = 2.0
CREATION_DATE  = 
ORIGINATOR     = 

OBJECT_NAME    = E-KAGAKU-1
OBJECT_ID      = 1998-067XQ
CENTER_NAME    = EARTH
REF_FRAME      = TEME
TIME_SYSTEM    = UTC
MEAN_ELEMENT_THEORY = SGP/SGP4

EPOCH          = 2025-12-06T18:01:16.505472
MEAN_MOTION    = 15.58389180
ECCENTRICITY   = .00030246
INCLINATION    = 51.6289
RA_OF_ASC_NODE = 170.0575
ARG_OF_PERICENTER = 170.5434
MEAN_ANOMALY   = 189.5616

EPHEMERIS_TYPE = 0
CLASSIFICATION_TYPE = U
NORAD_CAT_ID   = 65943
ELEMENT_SET_NO = 999
REV_AT_EPOCH   = 892
BSTAR          = .11230983E-2
MEAN_MOTION_DOT = .87541E-3
MEAN_MOTION_DDOT = 0

CCSDS_OMM_VERS = 2.0
CREATION_DATE  = 
ORIGINATOR     = 

OBJECT_NAME    = HRC MONOBLOCK CAMERA
OBJECT_ID      = 1998-067XR
CENTER_NAME    = EARTH
REF_FRAME      = TEME
TIME_SYSTEM    = UTC
MEAN_ELEMENT_THEORY = SGP/SGP4

EPOCH          = 2025-12-07T05:58:18.700320
MEAN_MOTION    = 15.53604712
ECCENTRICITY   = .00040184
INCLINATION    = 51.6286
RA_OF_ASC_NODE = 168.8742
ARG_OF_PERICENTER = 162.1137
MEAN_ANOMALY   = 197.9995

EPHEMERIS_TYPE = 0
CLASSIFICATION_TYPE = U
NORAD_CAT_ID   = 66052
ELEMENT_SET_NO = 999
REV_AT_EPOCH   = 798
BSTAR          = .71473095E-3
MEAN_MOTION_DOT = .46223E-3
MEAN_MOTION_DDOT = 0

CCSDS_OMM_VERS = 2.0
CREATION_DATE  = 
ORIGINATOR     = 

OBJECT_NAME    = HTV-X1
OBJECT_ID      = 2025-241A
CENTER_NAME    = EARTH
REF_FRAME      = TEME
TIME_SYSTEM    = UTC
MEAN_ELEMENT_THEORY = SGP/SGP4

EPOCH          = 2025-12-07T04:30:36.916128
MEAN_MOTION    = 15.49384117
ECCENTRICITY   = .00034959
INCLINATION    = 51.6302
RA_OF_ASC_NODE = 169.9669
ARG_OF_PERICENTER = 214.2568
MEAN_ANOMALY   = 145.8196

EPHEMERIS_TYPE = 0
CLASSIFICATION_TYPE = U
NORAD_CAT_ID   = 66174
ELEMENT_SET_NO = 999
REV_AT_EPOCH   = 51
BSTAR          = .24795554E-3
MEAN_MOTION_DOT = .13419E-3
MEAN_MOTION_DDOT = 0

CCSDS_OMM_VERS = 2.0
CREATION_DATE  = 
ORIGINATOR     = 

OBJECT_NAME    = SZ-21 MODULE
OBJECT_ID      = 2025-246C
CENTER_NAME    = EARTH
REF_FRAME      = TEME
TIME_SYSTEM    = UTC
MEAN_ELEMENT_THEORY = SGP/SGP4

EPOCH          = 2025-12-07T05:36:05.793696
MEAN_MOTION    = 15.62095520
ECCENTRICITY   = .00061886
INCLINATION    = 41.4776
RA_OF_ASC_NODE = 49.6264
ARG_OF_PERICENTER = 229.5557
MEAN_ANOMALY   = 130.4743

EPHEMERIS_TYPE = 0
CLASSIFICATION_TYPE = U
NORAD_CAT_ID   = 66515
ELEMENT_SET_NO = 999
REV_AT_EPOCH   = 358
BSTAR          = .38778265E-3
MEAN_MOTION_DOT = .34807E-3
MEAN_MOTION_DDOT = 0

